[{"OBJECT_NAME":"O3B FM17","OBJECT_ID":"2019-020C","EPOCH":"2026-04-27T03:31:57.272160","MEAN_MOTION":5.00115502,"ECCENTRICITY":0.00026111,"INCLINATION":0.0341,"RA_OF_ASC_NODE":355.3108,"ARG_OF_PERICENTER":37.923,"MEAN_ANOMALY":326.7813,"EPHEMERIS_TYPE":0,"CLASSIFICATION_TYPE":"U","NORAD_CAT_ID":44114,"ELEMENT_SET_NO":999,"REV_AT_EPOCH":12897,"BSTAR":0,"MEAN_MOTION_DOT":-2.7e-7,"MEAN_MOTION_DDOT":0},{"OBJECT_NAME":"O3B FM18","OBJECT_ID":"2019-020D","EPOCH":"2026-04-26T21:26:48.120000","MEAN_MOTION":5.00115252,"ECCENTRICITY":0.00027328,"INCLINATION":0.0537,"RA_OF_ASC_NODE":1.4716,"ARG_OF_PERICENTER":36.1801,"MEAN_ANOMALY":322.366,"EPHEMERIS_TYPE":0,"CLASSIFICATION_TYPE":"U","NORAD_CAT_ID":44115,"ELEMENT_SET_NO":999,"REV_AT_EPOCH":12908,"BSTAR":0,"MEAN_MOTION_DOT":-2.7e-7,"MEAN_MOTION_DDOT":0},{"OBJECT_NAME":"SES-17","OBJECT_ID":"2021-095A","EPOCH":"2026-04-27T04:35:38.533344","MEAN_MOTION":1.00270326,"ECCENTRICITY":9.853e-5,"INCLINATION":0.0431,"RA_OF_ASC_NODE":47.2792,"ARG_OF_PERICENTER":342.2973,"MEAN_ANOMALY":187.4188,"EPHEMERIS_TYPE":0,"CLASSIFICATION_TYPE":"U","NORAD_CAT_ID":49332,"ELEMENT_SET_NO":999,"REV_AT_EPOCH":1734,"BSTAR":0,"MEAN_MOTION_DOT":-2.82e-6,"MEAN_MOTION_DDOT":0},{"OBJECT_NAME":"SES-22","OBJECT_ID":"2022-071A","EPOCH":"2026-04-27T04:02:38.500224","MEAN_MOTION":1.00274145,"ECCENTRICITY":0.00010284,"INCLINATION":0.0203,"RA_OF_ASC_NODE":273.6155,"ARG_OF_PERICENTER":119.2051,"MEAN_ANOMALY":103.9973,"EPHEMERIS_TYPE":0,"CLASSIFICATION_TYPE":"U","NORAD_CAT_ID":52933,"ELEMENT_SET_NO":999,"REV_AT_EPOCH":701,"BSTAR":0,"MEAN_MOTION_DOT":9.4e-7,"MEAN_MOTION_DDOT":0},{"OBJECT_NAME":"SES-20","OBJECT_ID":"2022-123A","EPOCH":"2026-04-27T00:16:38.720928","MEAN_MOTION":1.00269832,"ECCENTRICITY":0.00020234,"INCLINATION":0.0221,"RA_OF_ASC_NODE":101.307,"ARG_OF_PERICENTER":321.8701,"MEAN_ANOMALY":52.8977,"EPHEMERIS_TYPE":0,"CLASSIFICATION_TYPE":"U","NORAD_CAT_ID":53960,"ELEMENT_SET_NO":999,"REV_AT_EPOCH":1302,"BSTAR":0,"MEAN_MOTION_DOT":0,"MEAN_MOTION_DDOT":0},{"OBJECT_NAME":"SES-21","OBJECT_ID":"2022-123B","EPOCH":"2026-04-27T02:23:56.695200","MEAN_MOTION":1.00271477,"ECCENTRICITY":0.00013701,"INCLINATION":0.022,"RA_OF_ASC_NODE":66.4488,"ARG_OF_PERICENTER":315.4888,"MEAN_ANOMALY":98.1693,"EPHEMERIS_TYPE":0,"CLASSIFICATION_TYPE":"U","NORAD_CAT_ID":53961,"ELEMENT_SET_NO":999,"REV_AT_EPOCH":670,"BSTAR":0,"MEAN_MOTION_DOT":5.9e-7,"MEAN_MOTION_DDOT":0},{"OBJECT_NAME":"O3B MPOWER F1","OBJECT_ID":"2022-174A","EPOCH":"2026-04-26T22:47:56.632128","MEAN_MOTION":5.00114858,"ECCENTRICITY":0.0005896,"INCLINATION":0.0597,"RA_OF_ASC_NODE":347.2739,"ARG_OF_PERICENTER":65.6164,"MEAN_ANOMALY":268.3717,"EPHEMERIS_TYPE":0,"CLASSIFICATION_TYPE":"U","NORAD_CAT_ID":54755,"ELEMENT_SET_NO":999,"REV_AT_EPOCH":6279,"BSTAR":0,"MEAN_MOTION_DOT":-2.7e-7,"MEAN_MOTION_DDOT":0},{"OBJECT_NAME":"O3B MPOWER F2","OBJECT_ID":"2022-174B","EPOCH":"2026-04-26T22:30:53.006400","MEAN_MOTION":5.00115355,"ECCENTRICITY":0.00059394,"INCLINATION":0.0562,"RA_OF_ASC_NODE":344.943,"ARG_OF_PERICENTER":48.8998,"MEAN_ANOMALY":326.1936,"EPHEMERIS_TYPE":0,"CLASSIFICATION_TYPE":"U","NORAD_CAT_ID":54756,"ELEMENT_SET_NO":999,"REV_AT_EPOCH":6287,"BSTAR":0,"MEAN_MOTION_DOT":-2.7e-7,"MEAN_MOTION_DDOT":0},{"OBJECT_NAME":"SES-18","OBJECT_ID":"2023-038A","EPOCH":"2026-04-27T00:16:38.720928","MEAN_MOTION":1.0026941,"ECCENTRICITY":0.00013385,"INCLINATION":0.0198,"RA_OF_ASC_NODE":252.0815,"ARG_OF_PERICENTER":89.486,"MEAN_ANOMALY":134.4938,"EPHEMERIS_TYPE":0,"CLASSIFICATION_TYPE":"U","NORAD_CAT_ID":55970,"ELEMENT_SET_NO":999,"REV_AT_EPOCH":1159,"BSTAR":0,"MEAN_MOTION_DOT":0,"MEAN_MOTION_DDOT":0},{"OBJECT_NAME":"SES-19","OBJECT_ID":"2023-038B","EPOCH":"2026-04-27T04:47:31.142400","MEAN_MOTION":1.00271297,"ECCENTRICITY":0.00015693,"INCLINATION":0.0209,"RA_OF_ASC_NODE":285.7854,"ARG_OF_PERICENTER":103.1091,"MEAN_ANOMALY":123.2724,"EPHEMERIS_TYPE":0,"CLASSIFICATION_TYPE":"U","NORAD_CAT_ID":55971,"ELEMENT_SET_NO":999,"REV_AT_EPOCH":1158,"BSTAR":0,"MEAN_MOTION_DOT":7.8e-7,"MEAN_MOTION_DDOT":0},{"OBJECT_NAME":"O3B MPOWER F4","OBJECT_ID":"2023-059A","EPOCH":"2026-04-27T04:51:20.340000","MEAN_MOTION":5.00115878,"ECCENTRICITY":0.00072675,"INCLINATION":0.0649,"RA_OF_ASC_NODE":2.4951,"ARG_OF_PERICENTER":45.5502,"MEAN_ANOMALY":312.0153,"EPHEMERIS_TYPE":0,"CLASSIFICATION_TYPE":"U","NORAD_CAT_ID":56367,"ELEMENT_SET_NO":999,"REV_AT_EPOCH":5605,"BSTAR":0,"MEAN_MOTION_DOT":-2.7e-7,"MEAN_MOTION_DDOT":0},{"OBJECT_NAME":"O3B MPOWER F3","OBJECT_ID":"2023-059B","EPOCH":"2026-04-27T00:51:24.220800","MEAN_MOTION":5.00116644,"ECCENTRICITY":0.00066561,"INCLINATION":0.066,"RA_OF_ASC_NODE":2.2345,"ARG_OF_PERICENTER":35.9779,"MEAN_ANOMALY":321.8335,"EPHEMERIS_TYPE":0,"CLASSIFICATION_TYPE":"U","NORAD_CAT_ID":56368,"ELEMENT_SET_NO":999,"REV_AT_EPOCH":5216,"BSTAR":0,"MEAN_MOTION_DOT":-2.7e-7,"MEAN_MOTION_DDOT":0},{"OBJECT_NAME":"O3B MPOWER F5","OBJECT_ID":"2023-175A","EPOCH":"2026-04-26T22:28:36.262848","MEAN_MOTION":5.00115551,"ECCENTRICITY":0.0004479,"INCLINATION":0.0448,"RA_OF_ASC_NODE":11.8153,"ARG_OF_PERICENTER":36.2481,"MEAN_ANOMALY":311.9734,"EPHEMERIS_TYPE":0,"CLASSIFICATION_TYPE":"U","NORAD_CAT_ID":58346,"ELEMENT_SET_NO":999,"REV_AT_EPOCH":4686,"BSTAR":0,"MEAN_MOTION_DOT":-2.7e-7,"MEAN_MOTION_DDOT":0},{"OBJECT_NAME":"O3B MPOWER F6","OBJECT_ID":"2023-175B","EPOCH":"2026-04-26T20:05:43.334304","MEAN_MOTION":5.00116208,"ECCENTRICITY":0.0004698,"INCLINATION":0.0514,"RA_OF_ASC_NODE":6.1687,"ARG_OF_PERICENTER":20.4235,"MEAN_ANOMALY":333.4304,"EPHEMERIS_TYPE":0,"CLASSIFICATION_TYPE":"U","NORAD_CAT_ID":58347,"ELEMENT_SET_NO":999,"REV_AT_EPOCH":4578,"BSTAR":0,"MEAN_MOTION_DOT":-2.7e-7,"MEAN_MOTION_DDOT":0},{"OBJECT_NAME":"ASTRA 1P (SES-24)","OBJECT_ID":"2024-115A","EPOCH":"2026-04-26T23:55:35.143392","MEAN_MOTION":1.00280132,"ECCENTRICITY":0.00033304,"INCLINATION":0.0821,"RA_OF_ASC_NODE":43.3286,"ARG_OF_PERICENTER":280.3888,"MEAN_ANOMALY":269.3719,"EPHEMERIS_TYPE":0,"CLASSIFICATION_TYPE":"U","NORAD_CAT_ID":60086,"ELEMENT_SET_NO":999,"REV_AT_EPOCH":668,"BSTAR":0,"MEAN_MOTION_DOT":1.1e-6,"MEAN_MOTION_DDOT":0},{"OBJECT_NAME":"O3B MPOWER F7","OBJECT_ID":"2024-244A","EPOCH":"2026-04-26T16:53:19.281696","MEAN_MOTION":5.00115126,"ECCENTRICITY":0.00060767,"INCLINATION":0.0717,"RA_OF_ASC_NODE":358.0196,"ARG_OF_PERICENTER":35.3481,"MEAN_ANOMALY":326.6691,"EPHEMERIS_TYPE":0,"CLASSIFICATION_TYPE":"U","NORAD_CAT_ID":62362,"ELEMENT_SET_NO":999,"REV_AT_EPOCH":2395,"BSTAR":0,"MEAN_MOTION_DOT":-2.7e-7,"MEAN_MOTION_DDOT":0},{"OBJECT_NAME":"O3B MPOWER F8","OBJECT_ID":"2024-244B","EPOCH":"2026-04-27T01:41:24.205920","MEAN_MOTION":5.00115425,"ECCENTRICITY":0.00062923,"INCLINATION":0.0325,"RA_OF_ASC_NODE":314.8944,"ARG_OF_PERICENTER":71.9777,"MEAN_ANOMALY":333.1591,"EPHEMERIS_TYPE":0,"CLASSIFICATION_TYPE":"U","NORAD_CAT_ID":62363,"ELEMENT_SET_NO":999,"REV_AT_EPOCH":1831,"BSTAR":0,"MEAN_MOTION_DOT":-2.7e-7,"MEAN_MOTION_DDOT":0}]
